0 METEOR 2-5
1 11605U 79095A   13282.41338113  .00000253  00000-0  14457-3 0  1292
2 11605 081.2116 056.9655 0011227 334.6391 048.9198 14.06903047741883
0 METEOR 2-5
1 11605U 79095A   13283.55649806  .00000238  00000-0  13522-3 0  1309
2 11605 081.2119 055.8542 0011135 331.4780 078.5833 14.06903768742048
0 METEOR 2-5
1 11605U 79095A   13285.85541419  .00000205  00000-0  11540-3 0  1329
2 11605 081.2127 053.6196 0010958 324.9603 202.3107 14.06904918742365
0 METEOR 2-5
1 11605U 79095A   13286.98752503  .00000199  00000-0  11225-3 0  1335
2 11605 081.2130 052.5193 0010850 321.7309 176.3367 14.06905438742527
0 METEOR 2-5
1 11605U 79095A   13288.46676927  .00000216  00000-0  12209-3 0  1349
2 11605 081.2133 051.0817 0010750 317.2991 108.7735 14.06906208742730
0 METEOR 2-5
1 11605U 79095A   13289.68442160  .00000197  00000-0  11109-3 0  1351
2 11605 081.2135 049.8984 0010691 313.5391 156.3508 14.06906652742908
0 METEOR 2-5
1 11605U 79095A   13290.75045447  .00000198  00000-0  11122-3 0  1365
2 11605 081.2135 048.8624 0010616 310.3550 155.8487 14.06907242743050
0 METEOR 2-5
1 11605U 79095A   13291.89393600  .00000184  00000-0  10298-3 0  1377
2 11605 081.2135 047.7513 0010536 306.8930 187.6751 14.06907811743215
0 METEOR 2-5
1 11605U 79095A   13293.44531503  .00000153  00000-0  84742-4 0  1389
2 11605 081.2135 046.2438 0010401 302.1713 125.5637 14.06908622743433
0 METEOR 2-5
1 11605U 79095A   13294.80481839  .00000130  00000-0  70583-4 0  1390
2 11605 081.2137 044.9228 0010269 298.1472 171.4722 14.06909331743629
0 METEOR 2-5
1 11605U 79095A   13295.81002124  .00000102  00000-0  53596-4 0  1404
2 11605 081.2139 043.9461 0010215 295.0220 222.9942 14.06909782743768
